INTELSAT 1R (IS-1R)     
1 26608U 00072A   23121.61205385 -.00000127  00000+0  00000+0 0  9999
2 26608   5.2528  76.3490 0001429  30.6170 129.7636  1.00272557 29866
ANIK F1                 
1 26624U 00076A   23121.67405598 -.00000052  00000+0  00000+0 0  9992
2 26624   2.2437  88.7075 0009205 339.1958 284.9558  1.00272843 31685
NAVSTAR 50 (USA 156)    
1 26690U 01004A   23121.89417396 -.00000017  00000+0  00000+0 0  9991
2 26690  54.2395  74.7609 0003618 315.3286 227.2953  1.91595190161651
ODIN                    
1 26702U 01007A   23121.91129790  .00006446  00000+0  36137-3 0  9994
2 26702  97.5069 136.2406 0008086 268.5294  91.5012 15.13703758214370
USA 157 (MILSTAR-2 2)   
1 26715U 01009A   23121.30006417  .00000022  00000+0  00000+0 0  9993
2 26715  10.3204  25.8507 0002103 357.1786 179.6915  1.00270510 21493
EUTELSAT 133 WEST A     
1 26719U 01011A   23121.81174503  .00000060  00000+0  00000+0 0  9990
2 26719   4.4994  79.5774 0002479 306.9748 127.9546  1.00465640 81093
BSAT-2A                 
1 26720U 01011B   23121.88243358 -.00000050  00000+0  00000+0 0  9994
2 26720   8.2860  56.8514 0001425  37.2186 177.1915  0.99175374 80645
INTELSAT 10 (IS-10)     
1 26766U 01019A   23121.65949947  .00000045  00000+0  00000+0 0  9997
2 26766   6.3358  70.5501 0004214 331.9789 232.0027  1.00271786 34165
INTELSAT 901 (IS-901)   
1 26824U 01024A   23121.76200524 -.00000194  00000+0  00000+0 0  9997
2 26824   0.0167 105.0003 0000931 300.3066  60.9321  1.00267491 11539
ASTRA 2C                
1 26853U 01025A   23121.75311444 -.00000248  00000+0  00000+0 0  9993
2 26853   5.3495  76.2117 0003160 315.7258  26.1454  1.00273663 33586
OMNI-M1                 
1 26857U 01026A   23121.21081579  .00000030  00000+0  00000+0 0  9990
2 26857  44.7982 148.1938 0014120 135.6091 224.5626  3.92402938160713
USA 159 (DSP 21)        
1 26880U 01033A   23121.15543646 -.00000288  00000+0  00000+0 0  9991
2 26880  11.7140  23.8494 0001096 321.2316 240.6564  1.00275660 21506
INTELSAT 902 (IS-902)   
1 26900U 01039A   23121.75755983 -.00000271  00000+0  00000+0 0  9997
2 26900   3.2105  85.4037 0003437 339.0526  17.5839  1.00270135 79235
PCSAT (NO-44)           
1 26931U 01043C   23121.85947902  .00000212  00000+0  11219-3 0  9993
2 26931  67.0509 316.4453 0007464 279.0783  80.9473 14.30899039126953
PROBA-1                 
1 26958U 01049B   23121.86541272  .00003637  00000+0  29758-3 0  9990
2 26958  97.8703  87.7990 0069524   3.3338 356.8333 14.98106358172042
BIRD 2                  
1 26959U 01049C   23121.86695167  .00061428  00000+0  64287-3 0  9992
2 26959  97.7672 243.5344 0004033 279.6302  80.4501 15.64242376196290
TIMED                   
1 26998U 01055B   23121.84202526  .00001458  00000+0  15647-3 0  9996
2 26998  74.0732   4.9968 0001718 201.8864 158.2245 14.89623814160393
MAROC-TUBSAT            
1 27004U 01056D   23121.92435792 -.00000014  00000+0  35549-4 0  9990
2 27004  99.6729 268.0775 0019704 190.6954 282.0971 13.70174776 69756
COSMOS 2385             
1 27056U 01058B   23121.82564680  .00000041  00000+0  17586-3 0  9996
2 27056  82.5385 230.3873 0004976 294.3507  65.7067 12.60525485982014
COSMOS 2386             
1 27057U 01058C   23121.79419186  .00000011  00000+0  43566-5 0  9999
2 27057  82.5462 225.4825 0001699 117.5159 242.6105 12.61575700982454
USA 164 (MILSTAR-2 3)   
1 27168U 02001A   23121.99778553  .00000064  00000+0  00000+0 0  9997
2 27168   9.8515  27.7050 0101195 351.8881 218.1662  1.00271233 20193
INTELSAT 904 (IS-904)   
1 27380U 02007A   23121.76165657 -.00000202  00000+0  00000+0 0  9994
2 27380   4.0365  82.4649 0003079 316.9944  64.6700  1.00273111 40315
NSS-7                   
1 27414U 02019A   23121.69183759 -.00000147  00000+0  00000+0 0  9998
2 27414   6.6468  68.5994 0002550 328.9684  50.8293  1.00271297 77115
AQUA                    
1 27424U 02022A   23121.89377205  .00001107  00000+0  25117-3 0  9992
2 27424  98.2842  66.4801 0001187  52.2856  40.8792 14.58000169116578
DIRECTV 5 (TEMPO 1)     
1 27426U 02023A   23121.62893733 -.00000047  00000+0  00000+0 0  9998
2 27426   1.9377  89.3711 0003350 309.6577 296.5772  1.00272079 76848
INTELSAT 905 (IS-905)   
1 27438U 02027A   23121.76261538 -.00000173  00000+0  00000+0 0  9992
2 27438   3.8596  83.1649 0002886 305.5329  80.7734  1.00273483 39918
GALAXY 3C (G-3C)        
1 27445U 02030A   23121.40473878 -.00000144  00000+0  00000+0 0  9995
2 27445   0.7705  91.2268 0000236  33.6837 145.0191  1.00270926 35031
COSMOS 2390             
1 27464U 02036A   23121.83804451  .00000024  00000+0  10349-3 0  9991
2 27464  82.4858 339.2220 0024541 237.0168 122.8551 12.44587920945716
COSMOS 2391             
1 27465U 02036B   23121.90864101  .00000016  00000+0  40330-4 0  9993
2 27465  82.4856 336.1813 0025331 232.0558 127.8228 12.44909705945956
INTELSAT 906 (IS-906)   
1 27513U 02041A   23121.81750810  .00000025  00000+0  00000+0 0  9999
2 27513   2.8816  86.7588 0003635 333.1276 158.0368  1.00271701 75573
INTEGRAL                
1 27540U 02048A   23121.48311912  .00000536  00000+0  00000+0 0  9992
2 27540  83.0217  41.2388 8787674 292.6697 344.1116  0.37571910 22338
TDRS 10                 
1 27566U 02055A   23121.58169810  .00000100  00000+0  00000+0 0  9994
2 27566   8.7909  48.1068 0008565 342.2498 227.3536  1.00279397 74775
NSS-6                   
1 27603U 02057A   23121.80542972  .00000118  00000+0  00000+0 0  9996
2 27603   2.4185  87.9021 0003224 304.0014 308.0056  1.00273477 74587
LATINSAT B              
1 27606U 02058B   23121.56463831  .00000752  00000+0  13072-3 0  9990
2 27606  64.5538 142.0799 0085827 239.2086 120.0546 14.73308748 93540
SAUDISAT 1C (SO-50)     
1 27607U 02058C   23121.92818384  .00001249  00000+0  18849-3 0  9997
2 27607  64.5558  46.7354 0072970 233.9188 125.5143 14.77173760 95395
LATINSAT A              
1 27612U 02058H   23121.80935281  .00001452  00000+0  20374-3 0  9998
2 27612  64.5549 256.1051 0045199 224.4123 135.3354 14.80728505 98202
NIMIQ 2                 
1 27632U 02062A   23121.57725892 -.00000055  00000+0  00000+0 0  9993
2 27632   6.7524  68.0641 0003755 328.5459 281.2753  1.00270473 32723
CORIOLIS                
1 27640U 03001A   23121.90565021  .00000154  00000+0  94361-4 0  9996
2 27640  98.7162 130.7540 0012963 260.8006  99.1704 14.19250384 52157
SORCE                   
1 27651U 03004A   23121.72213786  .00003078  00000+0  31296-3 0  9994
2 27651  39.9937 238.6175 0020603 196.1642 163.8492 14.91724750100571
NAVSTAR 51 (USA 166)    
1 27663U 03005A   23121.83150568 -.00000029  00000+0  00000+0 0  9997
2 27663  55.3139 260.4034 0132014  44.3680 293.5068  2.00573281148393
USA 167                 
1 27691U 03008A   23121.55019247  .00000063  00000+0  00000+0 0  9995
2 27691   8.6722  52.5042 0001356 333.4897 261.2876  1.00273671 21497
NAVSTAR 52 (USA 168)    
1 27704U 03010A   23121.33121318 -.00000092  00000+0  00000+0 0  9995
2 27704  55.1027  10.4549 0249131 315.5084 238.7204  2.00569320147185
USA 169 (MILSTAR-2 4)   
1 27711U 03012A   23121.60549251 -.00000231  00000+0  00000+0 0  9990
2 27711  10.6037  38.1837 0100887 352.3739 198.8452  1.00272787 20185
GALAXY 12 (G-12)        
1 27715U 03013B   23121.55276382  .00000068  00000+0  00000+0 0  9998
2 27715   4.0690  82.1552 0002121 322.7542 244.3067  1.00272655 40634
ASIASAT 4               
1 27718U 03014A   23121.84493917 -.00000212  00000+0  00000+0 0  9991
2 27718   1.7711  90.0138 0003146 305.5040 275.7238  1.00272588 33841
HELLAS-SAT 2            
1 27811U 03020A   23121.76549182 -.00000070  00000+0  00000+0 0  9991
2 27811   4.4822  81.1089 0005974 316.6399  87.2826  1.00271875 31390
THURAYA-2               
1 27825U 03026A   23121.86610483  .00000137  00000+0  00000+0 0  9999
2 27825   7.1468  34.5933 0002138 356.5839 184.1405  1.00273378 72892
OPTUS C1                
1 27831U 03028B   23121.79845654 -.00000140  00000+0  00000+0 0  9995
2 27831   4.0009  82.8779 0006283 321.3842 258.3221  1.00270176 41607
MOST                    
1 27843U 03031D   23121.89242327  .00000120  00000+0  75752-4 0  9999
2 27843  98.7082 129.8326 0009100 314.4774  45.5658 14.20787215 28472
CUTE-1 (CO-55)          
1 27844U 03031E   23121.90527965  .00000428  00000+0  21052-3 0  9990
2 27844  98.6794 129.8388 0008571 258.3242 101.6974 14.22746018 29156
CUBESAT XI-IV (CO-57)   
1 27848U 03031J   23121.83016205  .00000362  00000+0  18276-3 0  9997
2 27848  98.6831 130.1978 0008451 275.7296  84.2918 14.22260848 28910
GALAXY 23 (G-23)        
1 27854U 03034A   23121.67170253  .00000021  00000+0  00000+0 0  9997
2 27854   0.2416  95.3935 0003077 320.2830 284.4853  1.00272426 72287
SCISAT 1                
1 27858U 03036A   23121.89218428  .00000967  00000+0  13833-3 0  9995
2 27858  73.9316 275.1500 0008748 243.3913 116.6366 14.78140524 62477
COSMOS 2400             
1 27868U 03037A   23121.89792546  .00000018  00000+0  55746-4 0  9992
2 27868  82.4707 326.0758 0022238  36.6743 323.5856 12.45155035895485
COSMOS 2401             
1 27869U 03037B   23121.90758048  .00000016  00000+0  39504-4 0  9996
2 27869  82.4686 322.9434 0022991  33.2945 326.9573 12.45470858895713
USA 170                 
1 27875U 03040A   23121.12927181 -.00000263  00000+0  00000+0 0  9996
2 27875   8.0554  57.6461 0003077  10.8724 154.5583  1.00273067 21506
MOZHAYETS 4 (RS-22)     
1 27939U 03042A   23121.91273419  .00001443  00000+0  25893-3 0  9995
2 27939  98.2350 268.5476 0011259 283.1829  76.8124 14.68259064 47754
GALAXY 13 (HORIZONS-1)  
1 27954U 03044A   23121.67056941  .00000056  00000+0  00000+0 0  9994
2 27954   0.0096 301.0686 0001923 101.3704 291.2966  1.00272997 35111
IRS-P6 (RESOURCESAT-1)  
1 28051U 03046A   23121.92597597  .00000432  00000+0  16525-3 0  9991
2 28051  98.3619 188.4667 0059417 148.8943 211.5762 14.34331540 16679
